IRIDIUM 159             
1 43578U 18061K   24299.96442635 -.00000217  00000+0 -84498-4 0  9996
2 43578  86.3918 307.1270 0001995  90.2239 269.9185 14.34216773327496
IRIDIUM 180             
1 43922U 19002A   24299.89415410  .00000220  00000+0  71628-4 0  9991
2 43922  86.3968 243.9892 0002126  85.1480 274.9959 14.34214745303136
IRIDIUM 176             
1 43923U 19002B   24299.88771505  .00003332  00000+0  52454-3 0  9993
2 43923  86.6089 244.0025 0002206  91.9054 268.2415 14.72245518311074
IRIDIUM 168             
1 43924U 19002C   24299.88780643  .00000666  00000+0  23084-3 0  9991
2 43924  86.3969 244.0521 0002145  83.1746 276.9694 14.34223531303078
IRIDIUM 173             
1 43925U 19002D   24299.94489379  .00000823  00000+0  28669-3 0  9990
2 43925  86.3963 243.9416 0002081  82.1634 277.9798 14.34218313303065
IRIDIUM 169             
1 43926U 19002E   24299.95971808  .00000716  00000+0  22756-3 0  9997
2 43926  86.4173 275.5751 0003270 118.5272 241.6256 14.38613708304076
IRIDIUM 172             
1 43927U 19002F   24299.93855294  .00000941  00000+0  32902-3 0  9990
2 43927  86.3965 243.9504 0002149  82.6940 277.4500 14.34215934303070
IRIDIUM 175             
1 43928U 19002G   24299.88225927  .00003097  00000+0  48725-3 0  9994
2 43928  86.1556 209.8051 0002996  89.1759 270.9801 14.72237003311066
